IRIDIUM 144             
1 43249U 18030A   25345.48351207  .00000148  00000+0  45899-4 0  9994
2 43249  86.3970   8.8711 0002332  96.1977 263.9484 14.34218211403236
IRIDIUM 149             
1 43250U 18030B   25345.35031810  .00000175  00000+0  55583-4 0  9998
2 43250  86.3971   8.8959 0002197  93.7389 266.4058 14.34217479403232
IRIDIUM 157             
1 43251U 18030C   25345.50888280  .00000469  00000+0  16026-3 0  9991
2 43251  86.3972   8.8787 0002210  88.2957 271.8492 14.34218232403239
IRIDIUM 140             
1 43252U 18030D   25345.45814110  .00000224  00000+0  72950-4 0  9995
2 43252  86.3971   8.9129 0002220  95.6151 264.5298 14.34218792403288
IRIDIUM 145             
1 43253U 18030E   25345.44545508  .00000419  00000+0  14249-3 0  9999
2 43253  86.3972   8.8908 0002506  98.1711 261.9769 14.34219681403216
IRIDIUM 146             
1 43254U 18030F   25345.49619723  .00000214  00000+0  69412-4 0  9992
2 43254  86.3971   8.8824 0002346  95.7441 264.4023 14.34218240403231
IRIDIUM 148             
1 43255U 18030G   25345.46448153  .00000225  00000+0  73263-4 0  9998
2 43255  86.3974   8.9361 0002278  90.1277 270.0180 14.34216460403264
IRIDIUM 142             
1 43256U 18030H   25345.50254030  .00000115  00000+0  33940-4 0  9999
2 43256  86.3971   8.8159 0002604  98.3454 261.8037 14.34217891403231
